STARLINK-11666 [DTC]    
1 63667U 25085D   26181.08057833  .00166606  00000+0  12743-2 0  9993
2 63667  42.9995 321.3533 0001108 311.4541  48.6232 15.70872969 67829
STARLINK-11663 [DTC]    
1 63668U 25085E   26181.39317731  .00075718  00000+0  58741-3 0  9996
2 63668  43.0011 319.3953 0002503 290.9001  69.1598 15.70870765 67977
STARLINK-11595 [DTC]    
1 63669U 25085F   26181.38786779  .00084624  00000+0  65574-3 0  9996
2 63669  42.9998 319.3518 0001683 282.6833  77.3846 15.70859889 68619
STARLINK-11599 [DTC]    
1 63670U 25085G   26181.50972931  .00146346  00000+0  11189-2 0  9991
2 63670  42.9937 318.5390 0000257 337.2276  22.8580 15.70949117 67980
STARLINK-11603 [DTC]    
1 63671U 25085H   26180.80500576  .00210578  00000+0  16013-2 0  9996
2 63671  42.9993 322.7155 0001322 277.1476  82.9241 15.70869755 67875
STARLINK-11644 [DTC]    
1 63672U 25085J   26180.79968345  .00154533  00000+0  11785-2 0  9996
2 63672  43.0030 322.6710 0005279 267.4153  92.6111 15.70969280 67873
STARLINK-11634 [DTC]    
1 63673U 25085K   26181.11230873  .00186985  00000+0  14263-2 0  9992
2 63673  42.9998 320.7118 0000381   2.6259 357.4611 15.70870004 67929
STARLINK-11656 [DTC]    
1 63674U 25085L   26180.78908791  .00163095  00000+0  12422-2 0  9998
2 63674  42.9987 322.5830 0001456  38.4003 321.6968 15.70984083 67872
STARLINK-11655 [DTC]    
1 63675U 25085M   26180.78376269  .00246611  00000+0  18537-2 0  9997
2 63675  43.0007 322.5401 0003430 262.9389  97.1089 15.71032310 67874
STARLINK-11661 [DTC]    
1 63676U 25085N   26179.82470267  .00197779  00000+0  15013-2 0  9990
2 63676  43.0026 328.2465 0004306 275.2453  84.7923 15.70946072 68374
STARLINK-33816          
1 63677U 25085P   26181.12435032  .00017367  00000+0  63908-3 0  9999
2 63677  43.0018 116.0913 0002661 285.8076  74.2483 15.27581776 66165
STARLINK-33861          
1 63678U 25085Q   26181.12949086  .00029097  00000+0  10626-2 0  9990
2 63678  42.9991 116.1345 0001583 275.3353  84.7318 15.27583282 66053
STARLINK-33850          
1 63679U 25085R   26181.11021438  .00016785  00000+0  61782-3 0  9992
2 63679  43.0004 115.9818 0001389 274.4551  85.6142 15.27594170 66050
STARLINK-33887          
1 63680U 25085S   26180.55628429  .00014022  00000+0  51798-3 0  9992
2 63680  43.0008 118.7020 0001307 269.7531  90.3171 15.27587800 66043
STARLINK-33886          
1 63681U 25085T   26180.87936121  .00024588  00000+0  89954-3 0  9992
2 63681  42.9981 116.8234 0001116 211.0413 149.0373 15.27599360 66034
STARLINK-33840          
1 63682U 25085U   26181.12563581  .00033624  00000+0  12258-2 0  9991
2 63682  42.9998 116.1008 0001250 271.5428  88.5281 15.27581594 66069
STARLINK-33853          
1 63684U 25085W   26181.08838992  .00016313  00000+0  60112-3 0  9998
2 63684  43.0002 115.8138 0001235 258.0004 102.0709 15.27574161 66061
STARLINK-33847          
1 63685U 25085X   26181.11535365  .00016564  00000+0  60990-3 0  9993
2 63685  42.9999 116.0180 0001545 274.6548  85.4127 15.27590505 66064
STARLINK-33880          
1 63686U 25085Y   26181.12820419  .00023255  00000+0  85183-3 0  9998
2 63686  43.0019 116.1225 0001586 259.9355 100.1317 15.27583720 66177
STARLINK-33894          
1 63697U 25087A   26181.24960437  .00021055  00000+0  63236-3 0  9991
2 63697  53.1595  54.5663 0001043  81.9817 278.1304 15.34409399 66466
STARLINK-33922          
1 63698U 25087B   26180.96935948  .00013250  00000+0  45863-3 0  9993
2 63698  53.1605  57.7835 0001299  93.6637 266.4513 15.30205048 66382
STARLINK-33919          
1 63699U 25087C   26181.61312308  .00023069  00000+0  78855-3 0  9992
2 63699  53.1597  55.4024 0001299 108.8230 251.2912 15.30201776 66486
STARLINK-33908          
1 63700U 25087D   26180.92092897  .00028453  00000+0  96875-3 0  9990
2 63700  53.1609  58.1899 0000480  42.8479 317.2560 15.30211668 66388
STARLINK-33950          
1 63701U 25087E   26181.58334491  .00049287  00000+0  15905-2 0  9995
2 63701  53.1588  54.9201 0001117  95.1298  55.8681 15.31680102  5874
STARLINK-33939          
1 63702U 25087F   26180.94073451  .00014324  00000+0  47227-3 0  9998
2 63702  53.1577  57.6075 0000899  89.1385 270.9719 15.31712964 66396
STARLINK-33868          
1 63703U 25087G   26181.25172626  .00018182  00000+0  62432-3 0  9999
2 63703  53.1604  56.6959 0001186  71.7526 288.3603 15.30208641 66433
STARLINK-33937          
1 63704U 25087H   26180.96619009  .00018158  00000+0  62345-3 0  9994
2 63704  53.1584  57.7596 0001428 138.3990 221.7120 15.30212317 66399
STARLINK-33848          
1 63705U 25087J   26180.97780163  .00014752  00000+0  50911-3 0  9998
2 63705  53.1609  57.8319 0001284  94.3294 265.7853 15.30207049 66386
STARLINK-33995          
1 63706U 25087K   26180.95469749  .00018405  00000+0  63198-3 0  9991
2 63706  53.1579  58.3951 0000829  67.4615 292.6474 15.30200478 66380
STARLINK-33982          
1 63707U 25087L   26180.98413608  .00017281  00000+0  59416-3 0  9997
2 63707  53.1602  57.8690 0001138  80.9811 279.1319 15.30204213 66394
