OBJECT_NAME,OBJECT_ID,EPOCH,MEAN_MOTION,ECCENTRICITY,INCLINATION,RA_OF_ASC_NODE,ARG_OF_PERICENTER,MEAN_ANOMALY,EPHEMERIS_TYPE,CLASSIFICATION_TYPE,NORAD_CAT_ID,ELEMENT_SET_NO,REV_AT_EPOCH,BSTAR,MEAN_MOTION_DOT,MEAN_MOTION_DDOT
STARLINK-11666 [DTC],2025-085D,2026-06-30T01:56:01.967712,15.70872969,.00011089,42.9995,321.3533,311.4541,48.6232,0,U,63667,999,6782,.127428E-2,.166606E-2,0
STARLINK-11663 [DTC],2025-085E,2026-06-30T09:26:10.519584,15.70870765,.00025033,43.0011,319.3953,290.9001,69.1598,0,U,63668,999,6797,.58741229E-3,.75718E-3,0
STARLINK-11595 [DTC],2025-085F,2026-06-30T09:18:31.777056,15.70859889,.00016836,42.9998,319.3518,282.6833,77.3846,0,U,63669,999,6861,.65573686E-3,.84624E-3,0
STARLINK-11599 [DTC],2025-085G,2026-06-30T12:14:00.612384,15.70949117,.00002573,42.9937,318.5390,337.2276,22.8580,0,U,63670,999,6798,.11188857E-2,.146346E-2,0
STARLINK-11603 [DTC],2025-085H,2026-06-29T19:19:12.497664,15.70869755,.00013225,42.9993,322.7155,277.1476,82.9241,0,U,63671,999,6787,.16013498E-2,.210578E-2,0
STARLINK-11644 [DTC],2025-085J,2026-06-29T19:11:32.650080,15.70969280,.00052796,43.0030,322.6710,267.4153,92.6111,0,U,63672,999,6787,.1178491E-2,.154533E-2,0
STARLINK-11634 [DTC],2025-085K,2026-06-30T02:41:43.474272,15.70870004,.00003814,42.9998,320.7118,2.6259,357.4611,0,U,63673,999,6792,.14263496E-2,.186985E-2,0
STARLINK-11656 [DTC],2025-085L,2026-06-29T18:56:17.195424,15.70984083,.00014563,42.9987,322.5830,38.4003,321.6968,0,U,63674,999,6787,.12422129E-2,.163095E-2,0
STARLINK-11655 [DTC],2025-085M,2026-06-29T18:48:37.096416,15.71032310,.00034302,43.0007,322.5401,262.9389,97.1089,0,U,63675,999,6787,.18536941E-2,.246611E-2,0
STARLINK-11661 [DTC],2025-085N,2026-06-28T19:47:34.310688,15.70946072,.00043067,43.0026,328.2465,275.2453,84.7923,0,U,63676,999,6837,.15013116E-2,.197779E-2,0
STARLINK-33816,2025-085P,2026-06-30T02:59:03.867648,15.27581776,.00026612,43.0018,116.0913,285.8076,74.2483,0,U,63677,999,6616,.63907987E-3,.17367E-3,0
STARLINK-33861,2025-085Q,2026-06-30T03:06:28.010304,15.27583282,.00015839,42.9991,116.1345,275.3353,84.7318,0,U,63678,999,6605,.10626042E-2,.29097E-3,0
STARLINK-33850,2025-085R,2026-06-30T02:38:42.522432,15.27594170,.00013894,43.0004,115.9818,274.4551,85.6142,0,U,63679,999,6605,.61782218E-3,.16785E-3,0
STARLINK-33887,2025-085S,2026-06-29T13:21:02.962656,15.27587800,.00013076,43.0008,118.7020,269.7531,90.3171,0,U,63680,999,6604,.51798411E-3,.14022E-3,0
STARLINK-33886,2025-085T,2026-06-29T21:06:16.808544,15.27599360,.00011167,42.9981,116.8234,211.0413,149.0373,0,U,63681,999,6603,.89953997E-3,.24588E-3,0
STARLINK-33840,2025-085U,2026-06-30T03:00:54.933984,15.27581594,.00012506,42.9998,116.1008,271.5428,88.5281,0,U,63682,999,6606,.12257562E-2,.33624E-3,0
STARLINK-33853,2025-085W,2026-06-30T02:07:16.889088,15.27574161,.00012359,43.0002,115.8138,258.0004,102.0709,0,U,63684,999,6606,.60112291E-3,.16313E-3,0
STARLINK-33847,2025-085X,2026-06-30T02:46:06.555360,15.27590505,.00015453,42.9999,116.0180,274.6548,85.4127,0,U,63685,999,6606,.6099021E-3,.16564E-3,0
STARLINK-33880,2025-085Y,2026-06-30T03:04:36.842016,15.27583720,.00015864,43.0019,116.1225,259.9355,100.1317,0,U,63686,999,6617,.85182688E-3,.23255E-3,0
STARLINK-33894,2025-087A,2026-06-30T05:59:25.817568,15.34409399,.00010439,53.1595,54.5663,81.9817,278.1304,0,U,63697,999,6646,.63236071E-3,.21055E-3,0
STARLINK-33922,2025-087B,2026-06-29T23:15:52.659072,15.30205048,.00012995,53.1605,57.7835,93.6637,266.4513,0,U,63698,999,6638,.45862662E-3,.1325E-3,0
STARLINK-33919,2025-087C,2026-06-30T14:42:53.834112,15.30201776,.00012999,53.1597,55.4024,108.8230,251.2912,0,U,63699,999,6648,.78854816E-3,.23069E-3,0
STARLINK-33908,2025-087D,2026-06-29T22:06:08.263008,15.30211668,.000048,53.1609,58.1899,42.8479,317.2560,0,U,63700,999,6638,.96875173E-3,.28453E-3,0
STARLINK-33950,2025-087E,2026-06-30T14:00:01.000224,15.31680102,.00011174,53.1588,54.9201,95.1298,55.8681,0,U,63701,999,587,.15905367E-2,.49287E-3,0
STARLINK-33939,2025-087F,2026-06-29T22:34:39.461664,15.31712964,.00008998,53.1577,57.6075,89.1385,270.9719,0,U,63702,999,6639,.47227452E-3,.14324E-3,0
STARLINK-33868,2025-087G,2026-06-30T06:02:29.148864,15.30208641,.00011865,53.1604,56.6959,71.7526,288.3603,0,U,63703,999,6643,.62432242E-3,.18182E-3,0
STARLINK-33937,2025-087H,2026-06-29T23:11:18.823776,15.30212317,.00014287,53.1584,57.7596,138.3990,221.7120,0,U,63704,999,6639,.62344944E-3,.18158E-3,0
STARLINK-33848,2025-087J,2026-06-29T23:28:02.060832,15.30207049,.00012846,53.1609,57.8319,94.3294,265.7853,0,U,63705,999,6638,.50910769E-3,.14752E-3,0
STARLINK-33995,2025-087K,2026-06-29T22:54:45.863136,15.30200478,.00008297,53.1579,58.3951,67.4615,292.6474,0,U,63706,999,6638,.63198081E-3,.18405E-3,0
STARLINK-33982,2025-087L,2026-06-29T23:37:09.357312,15.30204213,.00011388,53.1602,57.8690,80.9811,279.1319,0,U,63707,999,6639,.59416098E-3,.17281E-3,0
